ONEWEB-0228             
1 48780U 21045P   23348.80285313 -.00001224  00000+0 -32852-2 0  9991
2 48780  87.9004  81.4123 0001656 110.2714 249.8594 13.15546347123972
